[
    {
        "Altitude(m)": 604234.5979757034,
        "Argument of Periapsis(deg)": 0.0,
        "Eccentricity": 0.0,
        "Inclination(deg)": 60.0,
        "Latitude(deg)": 14.117171585921124,
        "Longitude(deg)": -143.2726476788792,
        "Mean Anomaly(deg)": 163.63640000000004,
        "RAAN(deg)": 145.0,
        "Satellite Name": "Test1 648",
        "Satellite Number": 648,
        "Semi-Major Axis(m)": 6980739.136638005,
        "Time(s)": 0
    },
    {
        "Altitude(m)": 604223.4268529939,
        "Argument of Periapsis(deg)": 0.00010418945913296404,
        "Eccentricity": 0.0,
        "Inclination(deg)": 60.0,
        "Latitude(deg)": 13.582307448652344,
        "Longitude(deg)": -142.98573956372525,
        "Mean Anomaly(deg)": 164.25650614546183,
        "RAAN(deg)": 144.99957995086027,
        "Satellite Name": "Test1 648",
        "Satellite Number": 648,
        "Semi-Major Axis(m)": 6980739.136638005,
        "Time(s)": 10
    }
]